COMMENT,ORIGINATOR,NORAD_CAT_ID,OBJECT_NAME,OBJECT_TYPE,CLASSIFICATION_TYPE,INTLDES,EPOCH,EPOCH_MICROSECONDS,MEAN_MOTION,ECCENTRICITY,INCLINATION,RA_OF_ASC_NODE,ARG_OF_PERICENTER,MEAN_ANOMALY,EPHEMERIS_TYPE,ELEMENT_SET_NO,REV_AT_EPOCH,BSTAR,MEAN_MOTION_DOT,MEAN_MOTION_DDOT,FILE,TLE_LINE0,TLE_LINE1,TLE_LINE2,OBJECT_ID,OBJECT_NUMBER,SEMIMAJOR_AXIS,PERIOD,APOGEE,PERIGEE,DECAYED
"GENERATED VIA SPACETRACK.ORG API","18 SPCS","48890","SPACEBEE-104","PAYLOAD","U","21059M","2023-05-28 20:58:17","485536","15.31149956","0.0005295","97.5919","285.3731","342.0246","18.0806","0","999","10644","0.00093286","0.00028074","0","3919474","0 SPACEBEE-104","1 48890U 21059M   23148.87381349  .00028074  00000-0  93286-3 0  9999","2 48890  97.5919 285.3731 0005295 342.0246  18.0806 15.31149956106444","2021-059M","48890","6850.517","94.047","476.009","468.755","0"
"GENERATED VIA SPACETRACK.ORG API","18 SPCS","48890","SPACEBEE-104","PAYLOAD","U","21059M","2023-05-28 20:58:17","485536","15.31149956","0.0005295","97.5919","285.3731","342.0246","18.0806","0","999","10644","0.00093286","0.00028074","0","3919546","0 SPACEBEE-104","1 48890U 21059M   23148.87381349  .00028074  00000-0  93286-3 0  9999","2 48890  97.5919 285.3731 0005295 342.0246  18.0806 15.31149956106444","2021-059M","48890","6850.517","94.047","476.009","468.755","0"
"GENERATED VIA SPACETRACK.ORG API","18 SPCS","48890","SPACEBEE-104","PAYLOAD","U","21059M","2023-05-29 07:57:02","290464","15.31172328","0.0005299","97.5919","285.8417","340.1473","19.9561","0","999","10651","0.00085685","0.0002579","0","3920065","0 SPACEBEE-104","1 48890U 21059M   23149.33127651  .00025790  00000-0  85685-3 0  9991","2 48890  97.5919 285.8417 0005299 340.1473  19.9561 15.31172328106510","2021-059M","48890","6850.450","94.046","475.945","468.685","0"
"GENERATED VIA SPACETRACK.ORG API","18 SPCS","48890","SPACEBEE-104","PAYLOAD","U","21059M","2023-05-29 20:29:52","739232","15.31199673","0.0005244","97.592","286.3765","337.8711","22.2303","0","999","10659","0.00084336","0.00025403","0","3920354","0 SPACEBEE-104","1 48890U 21059M   23149.85408263  .00025403  00000-0  84336-3 0  9992","2 48890  97.5920 286.3765 0005244 337.8711  22.2303 15.31199673106593","2021-059M","48890","6850.369","94.044","475.826","468.642","0"
"GENERATED VIA SPACETRACK.ORG API","18 SPCS","48890","SPACEBEE-104","PAYLOAD","U","21059M","2023-05-29 22:03:58","989600","15.31203103","0.0005241","97.592","286.4435","337.6922","22.409","0","999","10660","0.00085406","0.0002573","0","3920662","0 SPACEBEE-104","1 48890U 21059M   23149.91943275  .00025730  00000-0  85406-3 0  9998","2 48890  97.5920 286.4435 0005241 337.6922  22.4090 15.31203103106608","2021-059M","48890","6850.359","94.044","475.814","468.633","0"
"GENERATED VIA SPACETRACK.ORG API","18 SPCS","48890","SPACEBEE-104","PAYLOAD","U","21059M","2023-05-30 09:02:42","420768","15.31224734","0.0005247","97.592","286.9119","336.4558","23.6441","0","999","10667","0.00078707","0.00023715","0","3920920","0 SPACEBEE-104","1 48890U 21059M   23150.37687987  .00023715  00000-0  78707-3 0  9992","2 48890  97.5920 286.9119 0005247 336.4558  23.6441 15.31224734106673","2021-059M","48890","6850.294","94.042","475.753","468.565","0"
"GENERATED VIA SPACETRACK.ORG API","18 SPCS","48890","SPACEBEE-104","PAYLOAD","U","21059M","2023-05-30 21:35:31","301376","15.31252956","0.0005201","97.5922","287.4469","334.0087","26.0892","0","999","10675","0.00083823","0.00025289","0","3921192","0 SPACEBEE-104","1 48890U 21059M   23150.89966784  .00025289  00000-0  83823-3 0  9997","2 48890  97.5922 287.4469 0005201 334.0087  26.0892 15.31252956106753","2021-059M","48890","6850.210","94.041","475.638","468.512","0"
"GENERATED VIA SPACETRACK.ORG API","18 SPCS","48890","SPACEBEE-104","PAYLOAD","U","21059M","2023-05-31 02:17:49","440768","15.3126235","0.0005226","97.5922","287.6478","333.3864","26.7107","0","999","10678","0.0008791","0.00026538","0","3921459","0 SPACEBEE-104","1 48890U 21059M   23151.09571112  .00026538  00000-0  87910-3 0  9996","2 48890  97.5922 287.6478 0005226 333.3864  26.7107 15.31262350106785","2021-059M","48890","6850.182","94.040","475.627","468.467","0"
"GENERATED VIA SPACETRACK.ORG API","18 SPCS","48890","SPACEBEE-104","PAYLOAD","U","21059M","2023-05-31 08:34:13","361376","15.31279443","0.000526","97.5921","287.9154","332.3822","27.7138","0","999","10682","0.00092035","0.00027807","0","3921767","0 SPACEBEE-104","1 48890U 21059M   23151.35709909  .00027807  00000-0  92035-3 0  9996","2 48890  97.5921 287.9154 0005260 332.3822  27.7138 15.31279443106820","2021-059M","48890","6850.131","94.039","475.599","468.393","0"
"GENERATED VIA SPACETRACK.ORG API","18 SPCS","48890","SPACEBEE-104","PAYLOAD","U","21059M","2023-05-31 21:07:00","583104","15.31311186","0.0005246","97.5921","288.4504","330.0398","30.0542","0","999","10690","0.00094352","0.0002854","0","3922037","0 SPACEBEE-104","1 48890U 21059M   23151.87986786  .00028540  00000-0  94352-3 0  9992","2 48890  97.5921 288.4504 0005246 330.0398  30.0542 15.31311186106908","2021-059M","48890","6850.036","94.037","475.495","468.308","0"
"GENERATED VIA SPACETRACK.ORG API","18 SPCS","48890","SPACEBEE-104","PAYLOAD","U","21059M","2023-06-01 08:05:41","158752","15.31340615","0.0005322","97.5925","288.9187","328.4801","31.612","0","999","10697","0.0010656","0.00032289","0","3922365","0 SPACEBEE-104","1 48890U 21059M   23152.33728193  .00032289  00000-0  10656-2 0  9999","2 48890  97.5925 288.9187 0005322 328.4801  31.6120 15.31340615106974","2021-059M","48890","6849.949","94.035","475.459","468.168","0"
"GENERATED VIA SPACETRACK.ORG API","18 SPCS","48890","SPACEBEE-104","PAYLOAD","U","21059M","2023-06-01 08:05:41","158752","15.31340615","0.0005322","97.5925","288.9187","328.4801","31.612","0","999","10697","0.0010656","0.00032289","0","3922574","0 SPACEBEE-104","1 48890U 21059M   23152.33728193  .00032289  00000-0  10656-2 0  9999","2 48890  97.5925 288.9187 0005322 328.4801  31.6120 15.31340615106974","2021-059M","48890","6849.949","94.035","475.459","468.168","0"
"GENERATED VIA SPACETRACK.ORG API","18 SPCS","48890","SPACEBEE-104","PAYLOAD","U","21059M","2023-06-02 07:37:05","513088","15.31398925","0.0005294","97.5929","289.9223","324.0333","36.0551","0","999","10712","0.0008841","0.00026804","0","3923342","0 SPACEBEE-104","1 48890U 21059M   23153.31742492  .00026804  00000-0  88410-3 0  9996","2 48890  97.5929 289.9223 0005294 324.0333  36.0551 15.31398925107122","2021-059M","48890","6849.775","94.032","475.266","468.013","0"
"GENERATED VIA SPACETRACK.ORG API","18 SPCS","48890","SPACEBEE-104","PAYLOAD","U","21059M","2023-06-03 02:26:10","761216","15.31444527","0.0005242","97.5933","290.7248","320.5746","39.5112","0","999","10724","0.0010022","0.00030453","0","3923620","0 SPACEBEE-104","1 48890U 21059M   23154.10151344  .00030453  00000-0  10022-2 0  9992","2 48890  97.5933 290.7248 0005242 320.5746  39.5112 15.31444527107240","2021-059M","48890","6849.639","94.029","475.094","467.913","0"
"GENERATED VIA SPACETRACK.ORG API","18 SPCS","48890","SPACEBEE-104","PAYLOAD","U","21059M","2023-06-03 08:42:32","110560","15.31456632","0.0005254","97.5932","290.9925","319.6003","40.4847","0","999","10728","0.00089447","0.0002717","0","3924076","0 SPACEBEE-104","1 48890U 21059M   23154.36287165  .00027170  00000-0  89447-3 0  9991","2 48890  97.5932 290.9925 0005254 319.6003  40.4847 15.31456632107281","2021-059M","48890","6849.603","94.028","475.066","467.869","0"
"GENERATED VIA SPACETRACK.ORG API","18 SPCS","48890","SPACEBEE-104","PAYLOAD","U","21059M","2023-06-03 21:15:14","245056","15.31483386","0.0005241","97.5937","291.5274","317.2086","42.8746","0","999","10736","0.00090123","0.00027399","0","3924324","0 SPACEBEE-104","1 48890U 21059M   23154.88558154  .00027399  00000-0  90123-3 0  9993","2 48890  97.5937 291.5274 0005241 317.2086  42.8746 15.31483386107360","2021-059M","48890","6849.523","94.026","474.978","467.798","0"
"GENERATED VIA SPACETRACK.ORG API","18 SPCS","48890","SPACEBEE-104","PAYLOAD","U","21059M","2023-06-03 21:15:14","245056","15.31483386","0.0005241","97.5937","291.5274","317.2086","42.8746","0","999","10736","0.00090123","0.00027399","0","3924368","0 SPACEBEE-104","1 48890U 21059M   23154.88558154  .00027399  00000-0  90123-3 0  9993","2 48890  97.5937 291.5274 0005241 317.2086  42.8746 15.31483386107360","2021-059M","48890","6849.523","94.026","474.978","467.798","0"
"GENERATED VIA SPACETRACK.ORG API","18 SPCS","48890","SPACEBEE-104","PAYLOAD","U","21059M","2023-06-04 08:13:50","473920","15.31505472","0.0005279","97.5939","291.996","315.5621","44.5196","0","999","10743","0.00088999","0.00027074","0","3924842","0 SPACEBEE-104","1 48890U 21059M   23155.34294530  .00027074  00000-0  88999-3 0  9998","2 48890  97.5939 291.9960 0005279 315.5621  44.5196 15.31505472107432","2021-059M","48890","6849.457","94.025","474.938","467.706","0"
"GENERATED VIA SPACETRACK.ORG API","18 SPCS","48890","SPACEBEE-104","PAYLOAD","U","21059M","2023-06-04 20:46:31","99008","15.31534777","0.000527","97.5937","292.5309","313.2844","46.7957","0","999","10751","0.00092526","0.0002818","0","3925173","0 SPACEBEE-104","1 48890U 21059M   23155.86563772  .00028180  00000-0  92526-3 0  9992","2 48890  97.5937 292.5309 0005270 313.2844  46.7957 15.31534777107515","2021-059M","48890","6849.370","94.023","474.844","467.625","0"
"GENERATED VIA SPACETRACK.ORG API","18 SPCS","48890","SPACEBEE-104","PAYLOAD","U","21059M","2023-06-04 23:54:41","99328","15.31542406","0.0005276","97.5935","292.6649","312.341","47.7384","0","999","10753","0.0009461","0.00028826","0","3925259","0 SPACEBEE-104","1 48890U 21059M   23155.99630902  .00028826  00000-0  94610-3 0  9999","2 48890  97.5935 292.6649 0005276 312.3410  47.7384 15.31542406107531","2021-059M","48890","6849.347","94.023","474.826","467.598","0"
